start=new Date('2022-04-05T00:00:00.000Z').valueOf();
sats=[{"REF_FRAME":"TEME","PERIOD":"95.593","MEAN_MOTION_DOT":"0.00004274","DECAY_DATE":null,"SEMIMAJOR_AXIS":"6925.377","MEAN_MOTION_DDOT":"0.0000000000000","SITE":"AFETR","EPHEMERIS_TYPE":"0","LAUNCH_DATE":"2020-10-18","ECCENTRICITY":"0.00015920","RA_OF_ASC_NODE":"203.1242","REV_AT_EPOCH":"8133","APOAPSIS":"548.345","MEAN_ELEMENT_THEORY":"SGP4","RCS_SIZE":"LARGE","CENTER_NAME":"EARTH","OBJECT_TYPE":"PAYLOAD","PERIAPSIS":"546.140","OBJECT_NAME":"STARLINK-1815","TLE_LINE2":"2 46713  53.0531 203.1242 0001592  59.1592 300.9553 15.06390645 81331","TLE_LINE1":"1 46713U 20073AV  22094.79136218  .00004274  00000-0  30574-3 0  9996","COUNTRY_CODE":"US","GP_ID":"200435318","BSTAR":"0.00030574000000","OBJECT_ID":"2020-073AV","EPOCH":"2022-04-04T18:59:33.692352","CLASSIFICATION_TYPE":"U","ELEMENT_SET_NO":"999","INCLINATION":"53.0531","MEAN_ANOMALY":"300.9553","MEAN_MOTION":"15.06390645","TIME_SYSTEM":"UTC","NORAD_CAT_ID":"46713","FILE":"3388239","ARG_OF_PERICENTER":"59.1592"},{"TIME_SYSTEM":"UTC","MEAN_MOTION":"15.06380444","ARG_OF_PERICENTER":"65.1658","FILE":"3387897","NORAD_CAT_ID":"46714","GP_ID":"200424437","TLE_LINE1":"1 46714U 20073AW  22094.58127158  .00014445  00000-0  98717-3 0  9991","COUNTRY_CODE":"US","TLE_LINE2":"2 46714  53.0533 204.0770 0001828  65.1658 294.9521 15.06380444 80828","INCLINATION":"53.0533","MEAN_ANOMALY":"294.9521","CLASSIFICATION_TYPE":"U","ELEMENT_SET_NO":"999","EPOCH":"2022-04-04T13:57:01.864512","OBJECT_ID":"2020-073AW","BSTAR":"0.00098717000000","MEAN_ELEMENT_THEORY":"SGP4","APOAPSIS":"548.539","OBJECT_NAME":"STARLINK-1816","PERIAPSIS":"546.008","OBJECT_TYPE":"PAYLOAD","CENTER_NAME":"EARTH","RCS_SIZE":"LARGE","DECAY_DATE":null,"SEMIMAJOR_AXIS":"6925.408","MEAN_MOTION_DOT":"0.00014445","PERIOD":"95.593","REF_FRAME":"TEME","REV_AT_EPOCH":"8082","ECCENTRICITY":"0.00018280","RA_OF_ASC_NODE":"204.0770","LAUNCH_DATE":"2020-10-18","EPHEMERIS_TYPE":"0","SITE":"AFETR","MEAN_MOTION_DDOT":"0.0000000000000"},{"MEAN_ELEMENT_THEORY":"SGP4","APOAPSIS":"548.353","OBJECT_NAME":"STARLINK-1817","PERIAPSIS":"546.120","OBJECT_TYPE":"PAYLOAD","RCS_SIZE":"LARGE","CENTER_NAME":"EARTH","SEMIMAJOR_AXIS":"6925.372","DECAY_DATE":null,"PERIOD":"95.593","MEAN_MOTION_DOT":"0.00023310","REF_FRAME":"TEME","ECCENTRICITY":"0.00016120","RA_OF_ASC_NODE":"203.2008","REV_AT_EPOCH":"8133","LAUNCH_DATE":"2020-10-18","SITE":"AFETR","EPHEMERIS_TYPE":"0","MEAN_MOTION_DDOT":"0.0000000000000","TIME_SYSTEM":"UTC","MEAN_MOTION":"15.06392507","ARG_OF_PERICENTER":"47.0205","FILE":"3388239","NORAD_CAT_ID":"46715","TLE_LINE2":"2 46715  53.0541 203.2008 0001612  47.0205 313.0918 15.06392507 81334","TLE_LINE1":"1 46715U 20073AX  22094.77662734  .00023310  00000-0  15789-2 0  9995","COUNTRY_CODE":"US","GP_ID":"200434808","INCLINATION":"53.0541","MEAN_ANOMALY":"313.0918","ELEMENT_SET_NO":"999","CLASSIFICATION_TYPE":"U","OBJECT_ID":"2020-073AX","EPOCH":"2022-04-04T18:38:20.602176","BSTAR":"0.00157890000000"},{"BSTAR":"0.00134210000000","OBJECT_ID":"2020-073AY","EPOCH":"2022-04-04T19:00:13.624704","ELEMENT_SET_NO":"999","CLASSIFICATION_TYPE":"U","MEAN_ANOMALY":"303.8106","INCLINATION":"53.0523","TLE_LINE2":"2 46716  53.0523 218.1341 0001506  56.3026 303.8106 15.06408368 81122","COUNTRY_CODE":"US","TLE_LINE1":"1 46716U 20073AY  22094.79182436  .00019770  00000-0  13421-2 0  9990","GP_ID":"200435354","NORAD_CAT_ID":"46716","FILE":"3388253","ARG_OF_PERICENTER":"56.3026","MEAN_MOTION":"15.06408368","TIME_SYSTEM":"UTC","MEAN_MOTION_DDOT":"0.0000000000000","EPHEMERIS_TYPE":"0","SITE":"AFETR","LAUNCH_DATE":"2020-10-18","ECCENTRICITY":"0.00015060","RA_OF_ASC_NODE":"218.1341","REV_AT_EPOCH":"8112","REF_FRAME":"TEME","PERIOD":"95.592","MEAN_MOTION_DOT":"0.00019770","SEMIMAJOR_AXIS":"6925.323","DECAY_DATE":null,"RCS_SIZE":"LARGE","CENTER_NAME":"EARTH","OBJECT_TYPE":"PAYLOAD","PERIAPSIS":"546.145","OBJECT_NAME":"STARLINK-1818","APOAPSIS":"548.231","MEAN_ELEMENT_THEORY":"SGP4"},{"MEAN_MOTION_DOT":"-0.00000194","PERIOD":"95.594","DECAY_DATE":null,"SEMIMAJOR_AXIS":"6925.430","REF_FRAME":"TEME","LAUNCH_DATE":"2020-10-18","REV_AT_EPOCH":"8132","ECCENTRICITY":"0.00014670","RA_OF_ASC_NODE":"203.4068","MEAN_MOTION_DDOT":"0.0000000000000","EPHEMERIS_TYPE":"0","SITE":"AFETR","MEAN_ELEMENT_THEORY":"SGP4","APOAPSIS":"548.311","PERIAPSIS":"546.279","OBJECT_NAME":"STARLINK-1820","CENTER_NAME":"EARTH","RCS_SIZE":"LARGE","OBJECT_TYPE":"PAYLOAD","COUNTRY_CODE":"US","TLE_LINE1":"1 46717U 20073AZ  22094.72871274 -.00000194  00000-0  58703-5 0  9995","GP_ID":"200435349","TLE_LINE2":"2 46717  53.0557 203.4068 0001467  72.4504 287.6645 15.06373319 81325","CLASSIFICATION_TYPE":"U","ELEMENT_SET_NO":"999","MEAN_ANOMALY":"287.6645","INCLINATION":"53.0557","BSTAR":"0.00000587030000","EPOCH":"2022-04-04T17:29:20.780736","OBJECT_ID":"2020-073AZ","TIME_SYSTEM":"UTC","MEAN_MOTION":"15.06373319","ARG_OF_PERICENTER":"72.4504","NORAD_CAT_ID":"46717","FILE":"3388253"},{"MEAN_ELEMENT_THEORY":"SGP4","APOAPSIS":"548.452","OBJECT_NAME":"STARLINK-1821","PERIAPSIS":"545.994","OBJECT_TYPE":"PAYLOAD","CENTER_NAME":"EARTH","RCS_SIZE":"LARGE","DECAY_DATE":null,"SEMIMAJOR_AXIS":"6925.358","MEAN_MOTION_DOT":"0.00024563","PERIOD":"95.592","REF_FRAME":"TEME","REV_AT_EPOCH":"8061","RA_OF_ASC_NODE":"219.1133","ECCENTRICITY":"0.00017750","LAUNCH_DATE":"2020-10-18","EPHEMERIS_TYPE":"0","SITE":"AFETR","MEAN_MOTION_DDOT":"0.0000000000000","TIME_SYSTEM":"UTC","MEAN_MOTION":"15.06396956","ARG_OF_PERICENTER":"56.6695","FILE":"3387897","NORAD_CAT_ID":"46718","GP_ID":"200424937","TLE_LINE1":"1 46718U 20073BA  22094.57066897  .00024563  00000-0  16623-2 0  9993","COUNTRY_CODE":"US","TLE_LINE2":"2 46718  53.0531 219.1133 0001775  56.6695 303.4463 15.06396956 80610","MEAN_ANOMALY":"303.4463","INCLINATION":"53.0531","CLASSIFICATION_TYPE":"U","ELEMENT_SET_NO":"999","EPOCH":"2022-04-04T13:41:45.799008","OBJECT_ID":"2020-073BA","BSTAR":"0.00166230000000"},{"ECCENTRICITY":"0.00016990","RA_OF_ASC_NODE":"184.2004","REV_AT_EPOCH":"8110","LAUNCH_DATE":"2020-10-18","SITE":"AFETR","EPHEMERIS_TYPE":"0","MEAN_MOTION_DDOT":"0.0000000000000","SEMIMAJOR_AXIS":"6925.358","DECAY_DATE":null,"PERIOD":"95.592","MEAN_MOTION_DOT":"0.00010228","REF_FRAME":"TEME","OBJECT_NAME":"STARLINK-1822","PERIAPSIS":"546.047","OBJECT_TYPE":"PAYLOAD","RCS_SIZE":"LARGE","CENTER_NAME":"EARTH","MEAN_ELEMENT_THEORY":"SGP4","APOAPSIS":"548.400","MEAN_ANOMALY":"312.9530","INCLINATION":"53.0527","ELEMENT_SET_NO":"999","CLASSIFICATION_TYPE":"U","OBJECT_ID":"2020-073BB","EPOCH":"2022-04-04T13:17:13.072128","BSTAR":"0.00070460000000","TLE_LINE2":"2 46719  53.0527 184.2004 0001699  47.1602 312.9530 15.06396759 81109","COUNTRY_CODE":"US","TLE_LINE1":"1 46719U 20073BB  22094.55362352  .00010228  00000-0  70460-3 0  9990","GP_ID":"200425184","ARG_OF_PERICENTER":"47.1602","FILE":"3387897","NORAD_CAT_ID":"46719","TIME_SYSTEM":"UTC","MEAN_MOTION":"15.06396759"},{"OBJECT_ID":"2020-073BC","EPOCH":"2022-04-04T08:42:22.944384","BSTAR":"0.00087570000000","MEAN_ANOMALY":"311.7074","INCLINATION":"53.0518","ELEMENT_SET_NO":"999","CLASSIFICATION_TYPE":"U","TLE_LINE2":"2 46720  53.0518 124.7233 0004092  48.4289 311.7074 15.60194242 81922","GP_ID":"200425920","TLE_LINE1":"1 46720U 20073BC  22094.36276556  .00072784  00000-0  87570-3 0  9996","COUNTRY_CODE":"US","FILE":"3387897","NORAD_CAT_ID":"46720","ARG_OF_PERICENTER":"48.4289","MEAN_MOTION":"15.60194242","TIME_SYSTEM":"UTC","SITE":"AFETR","EPHEMERIS_TYPE":"0","MEAN_MOTION_DDOT":"0.0000000000000","RA_OF_ASC_NODE":"124.7233","ECCENTRICITY":"0.00040920","REV_AT_EPOCH":"8192","LAUNCH_DATE":"2020-10-18","REF_FRAME":"TEME","DECAY_DATE":null,"SEMIMAJOR_AXIS":"6765.233","PERIOD":"92.296","MEAN_MOTION_DOT":"0.00072784","OBJECT_TYPE":"PAYLOAD","RCS_SIZE":"LARGE","CENTER_NAME":"EARTH","OBJECT_NAME":"STARLINK-1823","PERIAPSIS":"384.329","APOAPSIS":"389.866","MEAN_ELEMENT_THEORY":"SGP4"},{"APOAPSIS":"548.294","MEAN_ELEMENT_THEORY":"SGP4","RCS_SIZE":"LARGE","CENTER_NAME":"EARTH","OBJECT_TYPE":"PAYLOAD","PERIAPSIS":"546.239","OBJECT_NAME":"STARLINK-1825","REF_FRAME":"TEME","PERIOD":"95.593","MEAN_MOTION_DOT":"0.00002412","SEMIMAJOR_AXIS":"6925.402","DECAY_DATE":null,"MEAN_MOTION_DDOT":"0.0000000000000","SITE":"AFETR","EPHEMERIS_TYPE":"0","LAUNCH_DATE":"2020-10-18","RA_OF_ASC_NODE":"218.1098","ECCENTRICITY":"0.00014840","REV_AT_EPOCH":"8112","MEAN_MOTION":"15.06382656","TIME_SYSTEM":"UTC","NORAD_CAT_ID":"46722","FILE":"3388248","ARG_OF_PERICENTER":"64.2617","TLE_LINE2":"2 46722  53.0556 218.1098 0001484  64.2617 295.8525 15.06382656 81129","GP_ID":"200435361","TLE_LINE1":"1 46722U 20073BE  22094.79551784  .00002412  00000-0  18084-3 0  9999","COUNTRY_CODE":"US","BSTAR":"0.00018084000000","OBJECT_ID":"2020-073BE","EPOCH":"2022-04-04T19:05:32.741376","ELEMENT_SET_NO":"999","CLASSIFICATION_TYPE":"U","INCLINATION":"53.0556","MEAN_ANOMALY":"295.8525"},{"MEAN_MOTION_DOT":"0.00010707","PERIOD":"95.594","DECAY_DATE":null,"SEMIMAJOR_AXIS":"6925.438","REF_FRAME":"TEME","LAUNCH_DATE":"2020-10-18","REV_AT_EPOCH":"8117","ECCENTRICITY":"0.00014640","RA_OF_ASC_NODE":"179.1953","MEAN_MOTION_DDOT":"0.0000000000000","EPHEMERIS_TYPE":"0","SITE":"AFETR","MEAN_ELEMENT_THEORY":"SGP4","APOAPSIS":"548.317","PERIAPSIS":"546.290","OBJECT_NAME":"STARLINK-1826","CENTER_NAME":"EARTH","RCS_SIZE":"LARGE","OBJECT_TYPE":"PAYLOAD","TLE_LINE1":"1 46723U 20073BF  22094.55592929  .00010707  00000-0  73720-3 0  9994","GP_ID":"200424438","COUNTRY_CODE":"US","TLE_LINE2":"2 46723  53.0523 179.1953 0001464  61.0622 299.0513 15.06370684 81175","ELEMENT_SET_NO":"999","CLASSIFICATION_TYPE":"U","INCLINATION":"53.0523","MEAN_ANOMALY":"299.0513","BSTAR":"0.00073720000000","EPOCH":"2022-04-04T13:20:32.290656","OBJECT_ID":"2020-073BF","TIME_SYSTEM":"UTC","MEAN_MOTION":"15.06370684","ARG_OF_PERICENTER":"61.0622","NORAD_CAT_ID":"46723","FILE":"3387897"}];
